ONEWEB-0240             
1 48785U 21045U   23324.56993663 -.00000955  00000+0 -25723-2 0  9996
2 48785  87.8989  86.2332 0001235 115.2443 244.8816 13.15541091120868
ONEWEB-0246             
1 48786U 21045V   23324.41306158  .00000056  00000+0  11386-3 0  9999
2 48786  87.8991  86.2661 0001122  99.2279 260.8978 13.15551458120719
ONEWEB-0210             
1 48787U 21045W   23324.61588392  .00000004  00000+0 -24615-4 0  9998
2 48787  87.8985  86.2332 0001179  73.3828 286.7432 13.15547833120784
ONEWEB-0214             
1 48788U 21045X   23324.39721041  .00000186  00000+0  45922-3 0  9997
2 48788  87.8985  86.2655 0001366  72.8142 287.3138 13.15552924120725
ONEWEB-0221             
1 48789U 21045Y   23324.78384676  .00000287  00000+0  72801-3 0  9998
2 48789  87.8986  86.2005 0001551 108.8861 251.2438 13.15545468122001
ONEWEB-0213             
1 48790U 21045Z   23324.77275406 -.00000026  00000+0 -10254-3 0  9996
2 48790  87.8985  86.2200 0001153 102.6381 257.4878 13.15546500122055
ONEWEB-0212             
1 48791U 21045AA  23324.60322207 -.00001384  00000+0 -37124-2 0  9993
2 48791  87.8983  86.2354 0001594 100.6475 259.4835 13.15537969120899
ONEWEB-0227             
1 48792U 21045AB  23324.59686138  .00000013  00000+0  11050-5 0  9997
2 48792  87.8989  86.2515 0001440 104.6367 255.4923 13.15547262120845
